ONEWEB-0624             
1 55165U 23004AB  23255.58335648  .00000013  00000+0  00000+0 0  9992
2 55165  87.9062 191.0902 0001495 302.0521  34.9919 13.30506069  5205
ONEWEB-0625             
1 55166U 23004AC  23255.39280192  .00000149  00000+0  28727-3 0  9995
2 55166  87.9599 206.3508 0002689  78.9457 281.1984 13.30724963 34728
ONEWEB-0626             
1 55167U 23004AD  23255.58335648 -.00022754  00000+0 -53287-1 0  9999
2 55167  87.9460 206.2941 0003485  80.8839 333.2629 13.24272895  5309
ONEWEB-0627             
1 55168U 23004AE  23255.58335648  .00000013  00000+0  00000+0 0  9995
2 55168  87.9461 206.3184 0002192  44.2231 316.2231 13.26531577  5313
ONEWEB-0628             
1 55169U 23004AF  23255.58335648  .00000013  00000+0  00000+0 0  9996
2 55169  87.9266 191.1802 0006544 150.8260  44.0653 13.27500675  5338
ONEWEB-0629             
1 55170U 23004AG  23255.58335648 -.00374086  00000+0 -89919+0 0  9990
2 55170  87.9480 206.2952 0002709  79.4641  37.0662 13.24677643  5148
ONEWEB-0631             
1 55171U 23004AH  23255.58335648 -.00758752  00000+0 -21065+0 0  9995
2 55171  86.7346 183.5772 0003709 108.2108 141.1265 14.49531280  5728
ONEWEB-0709             
1 55172U 23004AJ  23255.40781768 -.00000322  00000+0 -94523-3 0  9991
2 55172  87.8950 221.4751 0002652  61.4675 298.6720 13.11414170 33659
